HIMAWARI-8              
1 40267U 14060A   23310.32780753 -.00000270  00000+0  00000+0 0  9992
2 40267   0.0338  89.0004 0001128 124.1099  90.8737  1.00273521 33195
